{
  "type": "FeatureCollection",
  "features": [
    {
      "type": "Feature",
      "properties": {
        "norad_id": 51444,
        "name": "CSG-2",
        "group": "resource",
        "lat": 80.94798460173045,
        "lon": 108.6981712677677,
        "alt_km": 614.0004445466357,
        "timestamp": "2025-12-13T18:50:04.086283+00:00",
        "meta_object_name": "CSG-2",
        "meta_object_id": "2022-008A",
        "meta_epoch": "2025-12-13T07:06:30.165408",
        "meta_mean_motion": 14.82165636,
        "meta_eccentricity": 0.0001529,
        "meta_inclination": 97.8809,
        "meta_ra_of_asc_node": 168.6108,
        "meta_arg_of_pericenter": 82.2621,
        "meta_mean_anomaly": 277.8766,
        "meta_ephemeris_type": 0,
        "meta_classification_type": "U",
        "meta_norad_cat_id": 51444,
        "meta_element_set_no": 999,
        "meta_rev_at_epoch": 20905,
        "meta_bstar": 0.00011920068,
        "meta_mean_motion_dot": 8.97e-06,
        "meta_mean_motion_ddot": 0,
        "tle_line1": "1 51444U 22008A   25347.29618247  .00000897  00000+0  11920-3 0  9999",
        "tle_line2": "2 51444  97.8809 168.6108 0001529  82.2621 277.8766 14.82165636209050"
      },
      "geometry": {
        "type": "Point",
        "coordinates": [
          108.6981712677677,
          80.94798460173045
        ]
      }
    },
    {
      "type": "Feature",
      "properties": {
        "norad_id": 52912,
        "name": "GAOFEN-12 03",
        "group": "resource",
        "lat": -7.582837883229196,
        "lon": -123.83832058980622,
        "alt_km": 633.915421417837,
        "timestamp": "2025-12-13T18:50:04.086293+00:00",
        "meta_object_name": "GAOFEN-12 03",
        "meta_object_id": "2022-069A",
        "meta_epoch": "2025-12-13T05:53:04.922304",
        "meta_mean_motion": 14.79612685,
        "meta_eccentricity": 0.00021586,
        "meta_inclination": 97.8477,
        "meta_ra_of_asc_node": 234.5827,
        "meta_arg_of_pericenter": 61.7596,
        "meta_mean_anomaly": 298.3833,
        "meta_ephemeris_type": 0,
        "meta_classification_type": "U",
        "meta_norad_cat_id": 52912,
        "meta_element_set_no": 999,
        "meta_rev_at_epoch": 18711,
        "meta_bstar": 0.00033001591,
        "meta_mean_motion_dot": 2.423e-05,
        "meta_mean_motion_ddot": 0,
        "tle_line1": "1 52912U 22069A   25347.24519586  .00002423  00000+0  33002-3 0  9990",
        "tle_line2": "2 52912  97.8477 234.5827 0002158  61.7596 298.3833 14.79612685187117"
      },
      "geometry": {
        "type": "Point",
        "coordinates": [
          -123.83832058980622,
          -7.582837883229196
        ]
      }
    },
    {
      "type": "Feature",
      "properties": {
        "norad_id": 54754,
        "name": "SWOT",
        "group": "resource",
        "lat": 29.195850409299723,
        "lon": -67.36568675107729,
        "alt_km": 891.5368325073468,
        "timestamp": "2025-12-13T18:50:04.086304+00:00",
        "meta_object_name": "SWOT",
        "meta_object_id": "2022-173A",
        "meta_epoch": "2025-12-13T06:41:14.921952",
        "meta_mean_motion": 14.00165723,
        "meta_eccentricity": 3.404e-05,
        "meta_inclination": 77.6108,
        "meta_ra_of_asc_node": 286.2622,
        "meta_arg_of_pericenter": 106.5655,
        "meta_mean_anomaly": 253.5534,
        "meta_ephemeris_type": 0,
        "meta_classification_type": "U",
        "meta_norad_cat_id": 54754,
        "meta_element_set_no": 999,
        "meta_rev_at_epoch": 15313,
        "meta_bstar": 6.4602637e-05,
        "meta_mean_motion_dot": 9.3e-07,
        "meta_mean_motion_ddot": 0,
        "tle_line1": "1 54754U 22173A   25347.27864493  .00000093  00000+0  64603-4 0  9998",
        "tle_line2": "2 54754  77.6108 286.2622 0000340 106.5655 253.5534 14.00165723153138"
      },
      "geometry": {
        "type": "Point",
        "coordinates": [
          -67.36568675107729,
          29.195850409299723
        ]
      }
    },
    {
      "type": "Feature",
      "properties": {
        "norad_id": 57654,
        "name": "GAOFEN-12 04",
        "group": "resource",
        "lat": 17.267122171039222,
        "lon": 86.00360946476617,
        "alt_km": 630.7602044309588,
        "timestamp": "2025-12-13T18:50:04.086314+00:00",
        "meta_object_name": "GAOFEN-12 04",
        "meta_object_id": "2023-123A",
        "meta_epoch": "2025-12-13T06:44:32.195616",
        "meta_mean_motion": 14.79703631,
        "meta_eccentricity": 0.00013589,
        "meta_inclination": 97.9117,
        "meta_ra_of_asc_node": 263.0301,
        "meta_arg_of_pericenter": 75.0348,
        "meta_mean_anomaly": 285.1014,
        "meta_ephemeris_type": 0,
        "meta_classification_type": "U",
        "meta_norad_cat_id": 57654,
        "meta_element_set_no": 999,
        "meta_rev_at_epoch": 12513,
        "meta_bstar": 0.00031279123,
        "meta_mean_motion_dot": 2.298e-05,
        "meta_mean_motion_ddot": 0,
        "tle_line1": "1 57654U 23123A   25347.28092819  .00002298  00000+0  31279-3 0  9993",
        "tle_line2": "2 57654  97.9117 263.0301 0001358  75.0348 285.1014 14.79703631125136"
      },
      "geometry": {
        "type": "Point",
        "coordinates": [
          86.00360946476617,
          17.267122171039222
        ]
      }
    },
    {
      "type": "Feature",
      "properties": {
        "norad_id": 59065,
        "name": "PARS 1",
        "group": "resource",
        "lat": 67.96601404853281,
        "lon": -60.1601095297584,
        "alt_km": 427.9880568197932,
        "timestamp": "2025-12-13T18:50:04.086325+00:00",
        "meta_object_name": "PARS 1",
        "meta_object_id": "2024-039Q",
        "meta_epoch": "2025-12-13T07:37:36.249888",
        "meta_mean_motion": 15.40995297,
        "meta_eccentricity": 0.00125275,
        "meta_inclination": 97.4634,
        "meta_ra_of_asc_node": 318.2631,
        "meta_arg_of_pericenter": 70.6152,
        "meta_mean_anomaly": 289.6447,
        "meta_ephemeris_type": 0,
        "meta_classification_type": "U",
        "meta_norad_cat_id": 59065,
        "meta_element_set_no": 999,
        "meta_rev_at_epoch": 9997,
        "meta_bstar": 0.00042999947,
        "meta_mean_motion_dot": 0.00017707,
        "meta_mean_motion_ddot": 0,
        "tle_line1": "1 59065U 24039Q   25347.31778067  .00017707  00000+0  43000-3 0  9994",
        "tle_line2": "2 59065  97.4634 318.2631 0012527  70.6152 289.6447 15.40995297 99977"
      },
      "geometry": {
        "type": "Point",
        "coordinates": [
          -60.1601095297584,
          67.96601404853281
        ]
      }
    },
    {
      "type": "Feature",
      "properties": {
        "norad_id": 59371,
        "name": "RESURS-P 4",
        "group": "resource",
        "lat": 1.9691790151403024,
        "lon": 114.34432752377829,
        "alt_km": 473.00610036697526,
        "timestamp": "2025-12-13T18:50:04.086335+00:00",
        "meta_object_name": "RESURS-P 4",
        "meta_object_id": "2024-061A",
        "meta_epoch": "2025-12-13T07:05:17.109888",
        "meta_mean_motion": 15.32093608,
        "meta_eccentricity": 0.00014895,
        "meta_inclination": 97.254,
        "meta_ra_of_asc_node": 293.614,
        "meta_arg_of_pericenter": 53.1385,
        "meta_mean_anomaly": 306.9994,
        "meta_ephemeris_type": 0,
        "meta_classification_type": "U",
        "meta_norad_cat_id": 59371,
        "meta_element_set_no": 999,
        "meta_rev_at_epoch": 9529,
        "meta_bstar": 0.00020340656,
        "meta_mean_motion_dot": 6.227e-05,
        "meta_mean_motion_ddot": 0,
        "tle_line1": "1 59371U 24061A   25347.29533692  .00006227  00000+0  20341-3 0  9997",
        "tle_line2": "2 59371  97.2540 293.6140 0001489  53.1385 306.9994 15.32093608 95298"
      },
      "geometry": {
        "type": "Point",
        "coordinates": [
          114.34432752377829,
          1.9691790151403024
        ]
      }
    },
    {
      "type": "Feature",
      "properties": {
        "norad_id": 59625,
        "name": "LEGION 1",
        "group": "resource",
        "lat": -15.639142351507987,
        "lon": 64.53371591543113,
        "alt_km": 518.9721889938337,
        "timestamp": "2025-12-13T18:50:04.086346+00:00",
        "meta_object_name": "LEGION 1",
        "meta_object_id": "2024-081A",
        "meta_epoch": "2025-12-13T06:14:06.087552",
        "meta_mean_motion": 15.16490945,
        "meta_eccentricity": 0.00038966,
        "meta_inclination": 97.5212,
        "meta_ra_of_asc_node": 61.8936,
        "meta_arg_of_pericenter": 316.1052,
        "meta_mean_anomaly": 43.987,
        "meta_ephemeris_type": 0,
        "meta_classification_type": "U",
        "meta_norad_cat_id": 59625,
        "meta_element_set_no": 999,
        "meta_rev_at_epoch": 8935,
        "meta_bstar": 0.00040825,
        "meta_mean_motion_dot": 7.888e-05,
        "meta_mean_motion_ddot": 0,
        "tle_line1": "1 59625U 24081A   25347.25979268  .00007888  00000+0  40825-3 0  9993",
        "tle_line2": "2 59625  97.5212  61.8936 0003896 316.1052  43.9870 15.16490945 89352"
      },
      "geometry": {
        "type": "Point",
        "coordinates": [
          64.53371591543113,
          -15.639142351507987
        ]
      }
    }
  ]
}